start=new Date('2022-06-03T00:00:00.000Z').valueOf();
sats=[{"REV_AT_EPOCH":"10162","ELEMENT_SET_NO":"999","SITE":"AFETR","EPHEMERIS_TYPE":"0","FILE":"3477983","INCLINATION":"53.0547","TLE_LINE1":"1 46052U 20055AB  22153.78346011  .00001105  00000-0  93110-4 0  9997","MEAN_MOTION_DOT":"0.00001105","PERIOD":"95.592","COUNTRY_CODE":"US","MEAN_MOTION":"15.06394436","GP_ID":"205210380","BSTAR":"0.00009311000000","OBJECT_ID":"2020-055AB","REF_FRAME":"TEME","RA_OF_ASC_NODE":"173.2863","OBJECT_NAME":"STARLINK-1541","TLE_LINE2":"2 46052  53.0547 173.2863 0001564  66.4662 293.6492 15.06394436101625","NORAD_CAT_ID":"46052","EPOCH":"2022-06-02T18:48:10.953504","CENTER_NAME":"EARTH","ECCENTRICITY":"0.00015640","MEAN_ANOMALY":"293.6492","ARG_OF_PERICENTER":"66.4662","MEAN_ELEMENT_THEORY":"SGP4","DECAY_DATE":null,"OBJECT_TYPE":"PAYLOAD","MEAN_MOTION_DDOT":"0.0000000000000","TIME_SYSTEM":"UTC","PERIAPSIS":"546.147","LAUNCH_DATE":"2020-08-07","SEMIMAJOR_AXIS":"6925.366","RCS_SIZE":"LARGE","CLASSIFICATION_TYPE":"U","APOAPSIS":"548.314"},{"DECAY_DATE":null,"OBJECT_TYPE":"PAYLOAD","MEAN_MOTION_DDOT":"0.0000000000000","ARG_OF_PERICENTER":"59.1379","MEAN_ELEMENT_THEORY":"SGP4","TIME_SYSTEM":"UTC","PERIAPSIS":"546.213","APOAPSIS":"548.266","LAUNCH_DATE":"2020-08-07","RCS_SIZE":"LARGE","CLASSIFICATION_TYPE":"U","SEMIMAJOR_AXIS":"6925.374","RA_OF_ASC_NODE":"173.2829","OBJECT_NAME":"STARLINK-1543","OBJECT_ID":"2020-055AC","REF_FRAME":"TEME","TLE_LINE2":"2 46053  53.0550 173.2829 0001482  59.1379 300.9755 15.06391538101652","NORAD_CAT_ID":"46053","CENTER_NAME":"EARTH","EPOCH":"2022-06-02T18:53:29.400576","MEAN_ANOMALY":"300.9755","ECCENTRICITY":"0.00014820","TLE_LINE1":"1 46053U 20055AC  22153.78714584  .00000925  00000-0  81036-4 0  9995","INCLINATION":"53.0550","COUNTRY_CODE":"US","PERIOD":"95.593","MEAN_MOTION_DOT":"0.00000925","GP_ID":"205208629","BSTAR":"0.00008103600000","MEAN_MOTION":"15.06391538","REV_AT_EPOCH":"10165","ELEMENT_SET_NO":"999","FILE":"3477983","EPHEMERIS_TYPE":"0","SITE":"AFETR"},{"MEAN_MOTION":"15.06394336","GP_ID":"205208879","BSTAR":"0.00007033300000","MEAN_MOTION_DOT":"0.00000766","PERIOD":"95.592","COUNTRY_CODE":"US","INCLINATION":"53.0546","TLE_LINE1":"1 46054U 20055AD  22153.79451780  .00000766  00000-0  70333-4 0  9994","EPHEMERIS_TYPE":"0","SITE":"AFETR","FILE":"3477983","ELEMENT_SET_NO":"999","REV_AT_EPOCH":"10165","LAUNCH_DATE":"2020-08-07","RCS_SIZE":"LARGE","CLASSIFICATION_TYPE":"U","SEMIMAJOR_AXIS":"6925.366","APOAPSIS":"548.416","PERIAPSIS":"546.046","TIME_SYSTEM":"UTC","ARG_OF_PERICENTER":"57.1800","MEAN_ELEMENT_THEORY":"SGP4","OBJECT_TYPE":"PAYLOAD","DECAY_DATE":null,"MEAN_MOTION_DDOT":"0.0000000000000","MEAN_ANOMALY":"302.9354","ECCENTRICITY":"0.00017110","EPOCH":"2022-06-02T19:04:06.337920","CENTER_NAME":"EARTH","NORAD_CAT_ID":"46054","TLE_LINE2":"2 46054  53.0546 173.2550 0001711  57.1800 302.9354 15.06394336101657","REF_FRAME":"TEME","OBJECT_ID":"2020-055AD","OBJECT_NAME":"STARLINK-1548","RA_OF_ASC_NODE":"173.2550"},{"OBJECT_NAME":"STARLINK-1554","RA_OF_ASC_NODE":"173.3253","REF_FRAME":"TEME","OBJECT_ID":"2020-055AE","NORAD_CAT_ID":"46055","TLE_LINE2":"2 46055  53.0525 173.3253 0001608  58.8493 301.2653 15.06404677101651","EPOCH":"2022-06-02T18:42:50.471712","CENTER_NAME":"EARTH","MEAN_ANOMALY":"301.2653","ECCENTRICITY":"0.00016080","ARG_OF_PERICENTER":"58.8493","MEAN_ELEMENT_THEORY":"SGP4","OBJECT_TYPE":"PAYLOAD","DECAY_DATE":null,"MEAN_MOTION_DDOT":"0.0000000000000","TIME_SYSTEM":"UTC","PERIAPSIS":"546.086","APOAPSIS":"548.313","LAUNCH_DATE":"2020-08-07","SEMIMAJOR_AXIS":"6925.334","RCS_SIZE":"LARGE","CLASSIFICATION_TYPE":"U","REV_AT_EPOCH":"10165","ELEMENT_SET_NO":"999","FILE":"3477983","SITE":"AFETR","EPHEMERIS_TYPE":"0","TLE_LINE1":"1 46055U 20055AE  22153.77975083  .00001189  00000-0  98676-4 0  9990","INCLINATION":"53.0525","PERIOD":"95.592","COUNTRY_CODE":"US","MEAN_MOTION_DOT":"0.00001189","GP_ID":"205209631","BSTAR":"0.00009867600000","MEAN_MOTION":"15.06404677"},{"FILE":"3477482","SITE":"AFETR","EPHEMERIS_TYPE":"0","ELEMENT_SET_NO":"999","REV_AT_EPOCH":"10161","GP_ID":"205174550","BSTAR":"0.00017599000000","MEAN_MOTION":"15.06403415","PERIOD":"95.592","COUNTRY_CODE":"US","MEAN_MOTION_DOT":"0.00002341","TLE_LINE1":"1 46056U 20055AF  22153.47013422  .00002341  00000-0  17599-3 0  9993","INCLINATION":"53.0550","ECCENTRICITY":"0.00018190","MEAN_ANOMALY":"333.8127","EPOCH":"2022-06-02T11:16:59.596608","CENTER_NAME":"EARTH","NORAD_CAT_ID":"46056","TLE_LINE2":"2 46056  53.0550 174.7071 0001819  26.2954 333.8127 15.06403415101610","OBJECT_NAME":"STARLINK-1561","RA_OF_ASC_NODE":"174.7071","OBJECT_ID":"2020-055AF","REF_FRAME":"TEME","APOAPSIS":"548.463","RCS_SIZE":"LARGE","LAUNCH_DATE":"2020-08-07","SEMIMAJOR_AXIS":"6925.338","CLASSIFICATION_TYPE":"U","PERIAPSIS":"545.943","TIME_SYSTEM":"UTC","MEAN_ELEMENT_THEORY":"SGP4","ARG_OF_PERICENTER":"26.2954","DECAY_DATE":null,"OBJECT_TYPE":"PAYLOAD","MEAN_MOTION_DDOT":"0.0000000000000"},{"BSTAR":"0.00007566100000","GP_ID":"205209130","MEAN_MOTION":"15.06405859","TLE_LINE1":"1 46058U 20055AH  22153.74657473  .00000846  00000-0  75661-4 0  9998","INCLINATION":"53.0544","PERIOD":"95.592","COUNTRY_CODE":"US","MEAN_MOTION_DOT":"0.00000846","ELEMENT_SET_NO":"999","FILE":"3477983","SITE":"AFETR","EPHEMERIS_TYPE":"0","REV_AT_EPOCH":"10164","PERIAPSIS":"546.313","APOAPSIS":"548.079","LAUNCH_DATE":"2020-08-07","SEMIMAJOR_AXIS":"6925.331","RCS_SIZE":"LARGE","CLASSIFICATION_TYPE":"U","MEAN_ELEMENT_THEORY":"SGP4","ARG_OF_PERICENTER":"63.3917","DECAY_DATE":null,"MEAN_MOTION_DDOT":"0.0000000000000","OBJECT_TYPE":"PAYLOAD","TIME_SYSTEM":"UTC","EPOCH":"2022-06-02T17:55:04.056672","CENTER_NAME":"EARTH","MEAN_ANOMALY":"296.7203","ECCENTRICITY":"0.00012750","RA_OF_ASC_NODE":"173.4583","OBJECT_NAME":"STARLINK-1564","REF_FRAME":"TEME","OBJECT_ID":"2020-055AH","TLE_LINE2":"2 46058  53.0544 173.4583 0001275  63.3917 296.7203 15.06405859101645","NORAD_CAT_ID":"46058"},{"TLE_LINE2":"2 46059  53.0556 173.4356 0001669  65.8913 294.2250 15.06392729101609","NORAD_CAT_ID":"46059","REF_FRAME":"TEME","OBJECT_ID":"2020-055AJ","RA_OF_ASC_NODE":"173.4356","OBJECT_NAME":"STARLINK-1570","MEAN_ANOMALY":"294.2250","ECCENTRICITY":"0.00016690","EPOCH":"2022-06-02T18:05:41.983296","CENTER_NAME":"EARTH","TIME_SYSTEM":"UTC","ARG_OF_PERICENTER":"65.8913","MEAN_ELEMENT_THEORY":"SGP4","OBJECT_TYPE":"PAYLOAD","DECAY_DATE":null,"MEAN_MOTION_DDOT":"0.0000000000000","CLASSIFICATION_TYPE":"U","LAUNCH_DATE":"2020-08-07","RCS_SIZE":"LARGE","SEMIMAJOR_AXIS":"6925.371","APOAPSIS":"548.392","PERIAPSIS":"546.080","REV_AT_EPOCH":"10160","EPHEMERIS_TYPE":"0","SITE":"AFETR","FILE":"3477983","ELEMENT_SET_NO":"999","MEAN_MOTION_DOT":"-0.00001311","PERIOD":"95.593","COUNTRY_CODE":"US","INCLINATION":"53.0556","TLE_LINE1":"1 46059U 20055AJ  22153.75395814 -.00001311  00000-0 -69153-4 0  9997","MEAN_MOTION":"15.06392729","GP_ID":"205209380","BSTAR":"-0.00006915300000"},{"INCLINATION":"53.0544","TLE_LINE1":"1 46060U 20055AK  22153.75029401  .00001024  00000-0  87683-4 0  9992","MEAN_MOTION_DOT":"0.00001024","COUNTRY_CODE":"US","PERIOD":"95.593","MEAN_MOTION":"15.06387852","BSTAR":"0.00008768300000","GP_ID":"205210132","REV_AT_EPOCH":"10161","ELEMENT_SET_NO":"999","SITE":"AFETR","EPHEMERIS_TYPE":"0","FILE":"3477983","DECAY_DATE":null,"OBJECT_TYPE":"PAYLOAD","MEAN_MOTION_DDOT":"0.0000000000000","ARG_OF_PERICENTER":"54.3116","MEAN_ELEMENT_THEORY":"SGP4","TIME_SYSTEM":"UTC","PERIAPSIS":"545.957","LAUNCH_DATE":"2020-08-07","RCS_SIZE":"LARGE","SEMIMAJOR_AXIS":"6925.386","CLASSIFICATION_TYPE":"U","APOAPSIS":"548.544","REF_FRAME":"TEME","OBJECT_ID":"2020-055AK","RA_OF_ASC_NODE":"173.4521","OBJECT_NAME":"STARLINK-1572","NORAD_CAT_ID":"46060","TLE_LINE2":"2 46060  53.0544 173.4521 0001868  54.3116 305.8047 15.06387852101616","CENTER_NAME":"EARTH","EPOCH":"2022-06-02T18:00:25.402464","MEAN_ANOMALY":"305.8047","ECCENTRICITY":"0.00018680"},{"DECAY_DATE":null,"MEAN_MOTION_DDOT":"0.0000000000000","OBJECT_TYPE":"PAYLOAD","ARG_OF_PERICENTER":"50.1843","MEAN_ELEMENT_THEORY":"SGP4","TIME_SYSTEM":"UTC","PERIAPSIS":"546.080","SEMIMAJOR_AXIS":"6925.349","LAUNCH_DATE":"2020-08-07","RCS_SIZE":"LARGE","CLASSIFICATION_TYPE":"U","APOAPSIS":"548.347","OBJECT_ID":"2020-055AL","REF_FRAME":"TEME","RA_OF_ASC_NODE":"173.4909","OBJECT_NAME":"STARLINK-1573","TLE_LINE2":"2 46061  53.0538 173.4909 0001637  50.1843 309.9290 15.06399919101640","NORAD_CAT_ID":"46061","CENTER_NAME":"EARTH","EPOCH":"2022-06-02T17:49:46.122816","ECCENTRICITY":"0.00016370","MEAN_ANOMALY":"309.9290","INCLINATION":"53.0538","TLE_LINE1":"1 46061U 20055AL  22153.74289494 -.00000497  00000-0 -14496-4 0  9999","MEAN_MOTION_DOT":"-0.00000497","COUNTRY_CODE":"US","PERIOD":"95.592","MEAN_MOTION":"15.06399919","GP_ID":"205210381","BSTAR":"-0.00001449600000","REV_AT_EPOCH":"10164","ELEMENT_SET_NO":"999","EPHEMERIS_TYPE":"0","SITE":"AFETR","FILE":"3477983"},{"CENTER_NAME":"EARTH","EPOCH":"2022-06-02T18:37:35.004576","ECCENTRICITY":"0.00021040","MEAN_ANOMALY":"314.2805","OBJECT_ID":"2020-055AM","REF_FRAME":"TEME","RA_OF_ASC_NODE":"173.3337","OBJECT_NAME":"STARLINK-1574","NORAD_CAT_ID":"46062","TLE_LINE2":"2 46062  53.0530 173.3337 0002104  45.8357 314.2805 15.06388957101616","PERIAPSIS":"545.790","RCS_SIZE":"LARGE","LAUNCH_DATE":"2020-08-07","SEMIMAJOR_AXIS":"6925.382","CLASSIFICATION_TYPE":"U","APOAPSIS":"548.705","MEAN_MOTION_DDOT":"0.0000000000000","DECAY_DATE":null,"OBJECT_TYPE":"PAYLOAD","ARG_OF_PERICENTER":"45.8357","MEAN_ELEMENT_THEORY":"SGP4","TIME_SYSTEM":"UTC","ELEMENT_SET_NO":"999","SITE":"AFETR","EPHEMERIS_TYPE":"0","FILE":"3477983","REV_AT_EPOCH":"10161","MEAN_MOTION":"15.06388957","BSTAR":"0.00006745600000","GP_ID":"205208630","INCLINATION":"53.0530","TLE_LINE1":"1 46062U 20055AM  22153.77609959  .00000723  00000-0  67456-4 0  9999","MEAN_MOTION_DOT":"0.00000723","COUNTRY_CODE":"US","PERIOD":"95.593"}];
